{
    "links": {
        "self": "http://www.neowsapp.com/rest/v1/neo/3723957?api_key=iIulBulltgU6a56xZRHN4H3l9WmuAYTsLGpBGhQ2"
    },
    "id": "3723957",
    "neo_reference_id": "3723957",
    "name": "(2015 NL3)",
    "designation": "2015 NL3",
    "nasa_jpl_url": "http://ssd.jpl.nasa.gov/sbdb.cgi?sstr=3723957",
    "absolute_magnitude_h": 21.3,
    "estimated_diameter": {
        "kilometers": {
            "estimated_diameter_min": 0.1460679643,
            "estimated_diameter_max": 0.3266178974
        },
        "meters": {
            "estimated_diameter_min": 146.0679642714,
            "estimated_diameter_max": 326.6178974458
        },
        "miles": {
            "estimated_diameter_min": 0.090762397,
            "estimated_diameter_max": 0.2029508896
        },
        "feet": {
            "estimated_diameter_min": 479.2256199,
            "estimated_diameter_max": 1071.581062656
        }
    },
    "is_potentially_hazardous_asteroid": false,
    "close_approach_data": [
        {
            "close_approach_date": "2015-06-27",
            "close_approach_date_full": "2015-Jun-27 18:23",
            "epoch_date_close_approach": 1435429380000,
            "relative_velocity": {
                "kilometers_per_second": "6.5271463358",
                "kilometers_per_hour": "23497.7268090308",
                "miles_per_hour": "14600.5736386447"
            },
            "miss_distance": {
                "astronomical": "0.3967261244",
                "lunar": "154.3264623916",
                "kilometers": "59349383.183595028",
                "miles": "36877996.6548582664"
            },
            "orbiting_body": "Earth"
        }
    ],
    "orbital_data": {
        "orbit_id": "5",
        "orbit_determination_date": "2017-04-06 08:32:49",
        "first_observation_date": "2015-07-09",
        "last_observation_date": "2015-07-21",
        "data_arc_in_days": 12,
        "observations_used": 18,
        "orbit_uncertainty": "8",
        "minimum_orbit_intersection": ".250843",
        "jupiter_tisserand_invariant": "3.548",
        "epoch_osculation": "2457214.5",
        "eccentricity": ".4221016893274616",
        "semi_major_axis": "2.174113944086813",
        "inclination": "9.738588450438908",
        "ascending_node_longitude": "126.1030300557247",
        "orbital_period": "1170.905589245288",
        "perihelion_distance": "1.256416775497379",
        "perihelion_argument": "153.4537796729967",
        "aphelion_distance": "3.091811112676248",
        "perihelion_time": "2457223.052261570448",
        "mean_anomaly": "357.3705701009201",
        "mean_motion": ".3074543356070574",
        "equinox": "J2000",
        "orbit_class": {
            "orbit_class_type": "AMO",
            "orbit_class_description": "Near-Earth asteroid orbits similar to that of 1221 Amor",
            "orbit_class_range": "1.017 AU < q (perihelion) < 1.3 AU"
        }
    },
    "is_sentry_object": false
}